STARLINK-2390_new
1 17809C 21018Y   21326.18993911 -.00020910  00000-0 -14011-2 0  3262
2 17809  53.0542  92.8774 0001451  82.1641 218.3006 15.06415317    13
STARLINK-2390_old
1 27809C 21018Y   21325.14946999  .00001968  00000-0  13183-3 0  3250
2 27809  53.0543  97.5479 0001415  81.2288 333.5876 15.06401150    10
